[{"OBJECT_NAME":"NANOSAT 1B","OBJECT_ID":"2009-041E","EPOCH":"2026-03-09T21:25:14.277504","MEAN_MOTION":14.92717139,"ECCENTRICITY":0.00507083,"INCLINATION":98.1028,"RA_OF_ASC_NODE":184.556,"ARG_OF_PERICENTER":130.665,"MEAN_ANOMALY":229.8993,"EPHEMERIS_TYPE":0,"CLASSIFICATION_TYPE":"U","NORAD_CAT_ID":35685,"ELEMENT_SET_NO":999,"REV_AT_EPOCH":89960,"BSTAR":0.0002341259,"MEAN_MOTION_DOT":2.414e-5,"MEAN_MOTION_DDOT":0},{"OBJECT_NAME":"STARLINK-5085","OBJECT_ID":"2023-014B","EPOCH":"2026-03-09T08:54:14.088096","MEAN_MOTION":14.98332586,"ECCENTRICITY":0.00029635,"INCLINATION":70.0002,"RA_OF_ASC_NODE":45.1506,"ARG_OF_PERICENTER":265.8444,"MEAN_ANOMALY":94.2376,"EPHEMERIS_TYPE":0,"CLASSIFICATION_TYPE":"U","NORAD_CAT_ID":55392,"ELEMENT_SET_NO":999,"REV_AT_EPOCH":17250,"BSTAR":0.00011549032,"MEAN_MOTION_DOT":1.285e-5,"MEAN_MOTION_DDOT":0}]
